     2.10           N: GPS NAV DATA                         RINEX VERSION / TYPE
RTKCONV demo5 b34b                      20210720 143242 UTC PGM / RUN BY / DATE 
format: u-blox UBX                                          COMMENT             
log: C:\Users\YX\Desktop\SAVE2021_7_20_22-32-23.DAT         COMMENT             
                                                            END OF HEADER       
32 21 07 20 16 00 00.0  .130031257868D-04 -.216004991671D-11  .000000000000D+00
     .250000000000D+02  .262500000000D+01  .489377527395D-08 -.144687457268D+01
     .102445483208D-06  .504315516446D-02  .642985105515D-05  .515368425560D+04
     .230400000000D+06  .176951289177D-06 -.236178723771D+01 -.633299350739D-07
     .957347390779D+00  .257500000000D+03 -.236158048057D+01 -.804604943597D-08
     .457161899771D-10  .100000000000D+01  .216700000000D+04  .000000000000D+00
     .200000000000D+01  .000000000000D+00  .465661287308D-09  .250000000000D+02
     .225126000000D+06  .400000000000D+01
25 21 07 20 15 59 44.0  .176852568984D-03  .670752342558D-11  .000000000000D+00
     .100000000000D+01  .115218750000D+03  .434518099423D-08  .332600872401D+00
     .585056841373D-05  .982771394774D-02  .850483775139D-05  .515360359001D+04
     .230384000000D+06 -.126659870148D-06 -.262595056264D+00  .178813934326D-06
     .960584603199D+00  .220468750000D+03  .970052313498D+00 -.806533595362D-08
     .275011455331D-10  .100000000000D+01  .216700000000D+04  .000000000000D+00
     .200000000000D+01  .000000000000D+00  .558793544769D-08  .100000000000D+01
     .225126000000D+06  .400000000000D+01
10 21 07 20 16 00 00.0 -.165872275829D-03 -.761701812735D-11  .000000000000D+00
     .520000000000D+02 -.461250000000D+02  .425553440295D-08 -.923262243635D-01
    -.255927443504D-05  .675886997487D-02  .105537474155D-04  .515367746735D+04
     .230400000000D+06  .558793544769D-08  .287918061423D+01  .949949026108D-07
     .970240634943D+00  .179750000000D+03 -.257434626344D+01 -.787461372356D-08
     .327156484524D-09  .100000000000D+01  .216700000000D+04  .000000000000D+00
     .200000000000D+01  .000000000000D+00  .232830643654D-08  .520000000000D+02
     .225126000000D+06  .400000000000D+01
12 21 07 20 16 00 00.0 -.712913461030D-04 -.534328137292D-11  .000000000000D+00
     .300000000000D+02  .118031250000D+03  .403373945001D-08  .546776141730D+00
     .592693686485D-05  .828584446572D-02  .821985304356D-05  .515371329689D+04
     .230400000000D+06 -.128522515297D-06 -.188479796449D+00  .242143869400D-07
     .973250975101D+00  .227750000000D+03  .122734974109D+01 -.795890294883D-08
     .539308178636D-10  .100000000000D+01  .216700000000D+04  .000000000000D+00
     .200000000000D+01  .000000000000D+00 -.125728547573D-07  .300000000000D+02
     .225126000000D+06  .400000000000D+01
31 21 07 20 16 00 00.0 -.129700638354D-03 -.216004991671D-11  .000000000000D+00
     .570000000000D+02  .170937500000D+02  .447268630534D-08  .787190638884D+00
     .105425715446D-05  .100567784393D-01  .943616032600D-05  .515357187653D+04
     .230400000000D+06  .316649675369D-07 -.128208037083D+01  .195577740669D-06
     .955422187661D+00  .193500000000D+03  .270877808771D+00 -.793211611876D-08
    -.588953103689D-09  .100000000000D+01  .216700000000D+04  .000000000000D+00
     .280000000000D+01  .000000000000D+00 -.130385160446D-07  .570000000000D+02
     .225126000000D+06  .400000000000D+01
23 21 07 20 16 00 00.0  .819861888885D-04 -.522959453519D-11  .000000000000D+00
     .169000000000D+03 -.448437500000D+02  .434875257157D-08  .150098650657D+01
    -.232271850109D-05  .142664462328D-02  .105835497379D-04  .515366414452D+04
     .230400000000D+06  .558793544769D-08  .285542385744D+01  .111758708954D-07
     .965238565466D+00  .175625000000D+03  .263380258525D+01 -.783068332225D-08
     .333942481473D-09  .100000000000D+01  .216700000000D+04  .000000000000D+00
     .200000000000D+01  .000000000000D+00 -.838190317154D-08  .937000000000D+03
     .225126000000D+06  .400000000000D+01
24 21 07 20 16 00 00.0  .181174371392D-03  .136424205266D-10  .000000000000D+00
     .690000000000D+02 -.562500000000D+00  .499413659726D-08  .226738887766D+01
    -.128522515297D-06  .112530548358D-01  .865943729877D-05  .515372119904D+04
     .230400000000D+06 -.121071934700D-06 -.137857514223D+01 -.152736902237D-06
     .934501783259D+00  .198812500000D+03  .743971985077D+00 -.813141013444D-08
    -.459662003910D-09  .100000000000D+01  .216700000000D+04  .000000000000D+00
     .280000000000D+01  .000000000000D+00  .279396772385D-08  .690000000000D+02
     .225126000000D+06  .400000000000D+01
21 21 07 20 16 00 00.0  .132412649691D-03  .227373675443D-11  .000000000000D+00
     .104000000000D+03 -.132562500000D+03  .458483383388D-08 -.202128603422D+01
    -.627338886261D-05  .240150728496D-01  .533089041710D-05  .515366761971D+04
     .230400000000D+06 -.372529029846D-07  .175973990046D+01  .569969415665D-06
     .957503468046D+00  .272437500000D+03 -.111098289239D+01 -.802176271004D-08
    -.197151069276D-09  .100000000000D+01  .216700000000D+04  .000000000000D+00
     .280000000000D+01  .000000000000D+00 -.102445483208D-07  .104000000000D+03
     .225126000000D+06  .400000000000D+01
22 21 07 20 16 00 00.0 -.558815896511D-03  .954969436862D-11  .000000000000D+00
     .250000000000D+02 -.651562500000D+02  .483198698594D-08  .306765944369D+01
    -.328384339809D-05  .689986813813D-02  .110361725092D-04  .515378891754D+04
     .230400000000D+06  .372529029846D-07  .278069393943D+01  .208616256714D-06
     .935992169088D+00  .151093750000D+03 -.920971485085D+00 -.795568852922D-08
     .370015412627D-09  .100000000000D+01  .216700000000D+04  .000000000000D+00
     .200000000000D+01  .000000000000D+00 -.176951289177D-07  .250000000000D+02
     .225126000000D+06  .400000000000D+01
